     2.11           N: GPS NAV DATA                         RINEX VERSION / TYPE
teqc  2018Dec12     gpsops              20220525 01:04:00UTCPGM / RUN BY / DATE
Linux 2.6.32-573.12.1.x86_64|x86_64|gcc -static|Linux 64|=+ COMMENT
CHPI                                    MARKER NAME         COMMENT
41609M003                               MARKER NUMBER       COMMENT
4164613.9484 -4162456.9866 -2445028.7316                    COMMENT
This data is provided as a public service by NASA/JPL.      COMMENT
No warranty is expressed or implied regarding suitability   COMMENT
for use.  For further information, contact:                 COMMENT
ggnops at jpl dot nasa dot gov                              COMMENT
                                                            END OF HEADER
19 22  5 24 22  0  0.0 1.616682857275D-04 5.002220859751D-12 0.000000000000D+00
    2.600000000000D+01-4.318750000000D+01 4.173030966347D-09 1.704695923908D+00
   -2.313405275345D-06 9.238953352906D-03 7.286667823792D-06 5.153703487396D+03
    2.520000000000D+05 1.434236764908D-07 1.665767444140D+00-2.235174179077D-08
    9.774066528417D-01 2.483750000000D+02 2.068045811438D+00-7.866041937935D-09
   -2.421529437849D-10 1.000000000000D+00 2.211000000000D+03 0.000000000000D+00
    2.000000000000D+00 0.000000000000D+00-1.583248376846D-08 2.600000000000D+01
    2.448180000000D+05 4.000000000000D+00
 7 22  5 24 21 59 44.0 3.222036175430D-04 0.000000000000D+00 0.000000000000D+00
    5.900000000000D+01 2.981250000000D+01 4.382682556320D-09 2.785029247418D+00
    1.447275280952D-06 1.613442518283D-02 1.109763979912D-05 5.153667320251D+03
    2.519840000000D+05 4.656612873077D-08-5.301564458411D-01-2.142041921616D-07
    9.509616173113D-01 1.573125000000D+02-2.266804798844D+00-7.677105496545D-09
    9.607543049875D-11 1.000000000000D+00 2.211000000000D+03 0.000000000000D+00
    2.000000000000D+00 0.000000000000D+00-1.117587089539D-08 5.900000000000D+01
    2.448180000000D+05 4.000000000000D+00
 5 22  5 24 22  0  0.0-8.304463699460D-05-1.364242052659D-12 0.000000000000D+00
    4.900000000000D+01 3.406250000000D+00 4.949134722755D-09-1.786742851983D-01
    3.241002559662D-07 5.987014388666D-03 4.626810550690D-06 5.153721355438D+03
    2.520000000000D+05-2.421438694000D-08-2.671571782900D+00-3.725290298462D-09
    9.609715026060D-01 2.873125000000D+02 1.025937273377D+00-8.467852720055D-09
    9.143237995420D-11 1.000000000000D+00 2.211000000000D+03 0.000000000000D+00
    2.000000000000D+00 0.000000000000D+00-1.117587089539D-08 4.900000000000D+01
    2.448180000000D+05 4.000000000000D+00
20 22  5 24 22  0  0.0 5.141627043486D-04-1.023181539495D-12 0.000000000000D+00
    8.100000000000D+01 1.634375000000D+01 5.311649822964D-09-1.782947789401D+00
    1.046806573868D-06 4.792570369318D-03 4.952773451805D-06 5.153579528809D+03
    2.520000000000D+05 1.210719347000D-07-2.787371926395D+00-1.229345798492D-07
    9.433378757519D-01 2.722812500000D+02-3.119869652831D+00-8.585714772340D-09
    2.467959943295D-10 1.000000000000D+00 2.211000000000D+03 0.000000000000D+00
    2.000000000000D+00 0.000000000000D+00-8.381903171539D-09 8.100000000000D+01
    2.448180000000D+05 4.000000000000D+00
 9 22  5 24 22  0  0.0-3.341436386108D-04 3.069544618484D-12 0.000000000000D+00
    5.700000000000D+01-6.462500000000D+01 4.750197864808D-09-1.182208369667D-01
   -3.363937139511D-06 2.087410073727D-03 7.668510079384D-06 5.153561101913D+03
    2.520000000000D+05-8.009374141693D-08-1.602086503116D+00-5.215406417847D-08
    9.540138934794D-01 2.285625000000D+02 1.877512500789D+00-8.195698526598D-09
   -3.843017219950D-10 1.000000000000D+00 2.211000000000D+03 0.000000000000D+00
    2.000000000000D+00 0.000000000000D+00 1.396983861923D-09 5.700000000000D+01
    2.448180000000D+05 4.000000000000D+00
15 22  5 24 22  0  0.0-5.864864215255D-05 2.955857780762D-12 0.000000000000D+00
    7.100000000000D+01-5.531250000000D+01 5.305935299217D-09-1.610642827156D+00
   -2.838671207428D-06 1.405605941545D-02 7.020309567451D-06 5.153786918640D+03
    2.520000000000D+05 3.222376108170D-07-1.710773216228D+00 1.061707735062D-07
    9.299578631521D-01 2.250312500000D+02 1.095193111395D+00-8.328918361453D-09
   -3.710868858297D-10 1.000000000000D+00 2.211000000000D+03 0.000000000000D+00
    2.000000000000D+00 0.000000000000D+00-1.071020960808D-08 7.100000000000D+01
    2.448180000000D+05 4.000000000000D+00
 6 22  5 24 22  0  0.0 3.162412904203D-04 1.489297574153D-11 0.000000000000D+00
    7.500000000000D+01 6.187500000000D+00 3.900162457421D-09-2.603411784631D+00
    4.414469003677D-07 2.540895016864D-03 9.715557098389D-06 5.153734777451D+03
    2.520000000000D+05-6.705522537231D-08 2.611479106358D+00 3.539025783539D-08
    9.872939982665D-01 2.071875000000D+02-8.535847238700D-01-7.663890660380D-09
    2.400099973798D-10 1.000000000000D+00 2.211000000000D+03 0.000000000000D+00
    2.000000000000D+00 0.000000000000D+00 3.725290298462D-09 7.500000000000D+01
    2.461680000000D+05 4.000000000000D+00
 1 22  5 24 22  0  0.0 3.558127209544D-04-8.185452315956D-12 0.000000000000D+00
    5.900000000000D+01 7.218750000000D+00 3.859446475723D-09-2.831786287517D+00
    1.937150955200D-07 1.193566957954D-02 1.023337244987D-05 5.153668054581D+03
    2.520000000000D+05 1.583248376846D-07 2.619754261932D+00-2.775341272354D-07
    9.879571960856D-01 1.947812500000D+02 9.096687254566D-01-7.571743964957D-09
    2.789401904071D-10 1.000000000000D+00 2.211000000000D+03 0.000000000000D+00
    2.000000000000D+00 0.000000000000D+00 5.122274160385D-09 5.900000000000D+01
    2.471220000000D+05 4.000000000000D+00
12 22  5 24 22  0  0.0-2.205618657172D-04-5.911715561524D-12 0.000000000000D+00
    7.200000000000D+01 3.490625000000D+01 4.427684430829D-09 2.190856793797D+00
    1.726672053337D-06 8.637543534860D-03 4.407018423080D-06 5.153541425705D+03
    2.520000000000D+05 1.024454832077D-07 5.826362078796D-01-1.471489667892D-07
    9.694406177101D-01 2.975312500000D+02 1.289238900055D+00-8.084979628997D-09
    1.400058318049D-10 1.000000000000D+00 2.211000000000D+03 0.000000000000D+00
    2.000000000000D+00 0.000000000000D+00-1.257285475731D-08 7.200000000000D+01
    2.475420000000D+05 4.000000000000D+00
24 22  5 24 22  0  0.0 2.349242568016D-04-7.275957614183D-12 0.000000000000D+00
    6.800000000000D+01 3.690625000000D+01 4.717696510996D-09-2.521094724343D+00
    1.892447471619D-06 1.247733831406D-02 1.085922122002D-05 5.153691495895D+03
    2.520000000000D+05-9.313225746155D-09-6.145318421065D-01-6.146728992462D-08
    9.343992414790D-01 1.550000000000D+02 8.156198345942D-01-7.900686238152D-09
    1.528635102359D-10 1.000000000000D+00 2.211000000000D+03 0.000000000000D+00
    2.000000000000D+00 0.000000000000D+00 2.793967723846D-09 6.800000000000D+01
    2.490660000000D+05 4.000000000000D+00
 2 22  5 24 22  0  0.0-6.531490944326D-04 1.136868377216D-13 0.000000000000D+00
    3.000000000000D+01 1.537500000000D+01 4.275178078327D-09-2.673800393765D+00
    9.220093488693D-07 2.040918567218D-02 9.609386324883D-06 5.153672071457D+03
    2.520000000000D+05 1.899898052216D-07 2.528455857478D+00 2.402812242508D-07
    9.660477990827D-01 1.920000000000D+02-1.417164701912D+00-7.599245110490D-09
    2.600108304947D-10 1.000000000000D+00 2.211000000000D+03 0.000000000000D+00
    2.000000000000D+00 0.000000000000D+00-1.769512891769D-08 3.000000000000D+01
    2.502120000000D+05 4.000000000000D+00
11 22  5 24 22  0  0.0-2.113776281476D-05 4.092726157978D-12 0.000000000000D+00
    7.100000000000D+01 1.746875000000D+01 4.490901349782D-09-6.319401634844D-01
    1.026317477226D-06 3.914093831554D-04 9.505078196526D-06 5.153582147598D+03
    2.520000000000D+05-2.048909664154D-08 2.661207776340D+00 6.146728992462D-08
    9.631507443745D-01 1.989375000000D+02 2.800224289313D+00-8.035334703944D-09
    2.496532562031D-10 1.000000000000D+00 2.211000000000D+03 0.000000000000D+00
    2.000000000000D+00 6.300000000000D+01-8.381903171539D-09 3.270000000000D+02
    2.512680000000D+05 4.000000000000D+00
19 22  5 25  0  0  0.0 1.617041416466D-04 5.002220859751D-12 0.000000000000D+00
    2.800000000000D+01-4.884375000000D+01 4.115171413407D-09 2.754914615012D+00
   -2.684071660042D-06 9.238960570656D-03 7.154420018196D-06 5.153702688217D+03
    2.592000000000D+05 8.754432201385D-08 1.665711143738D+00 5.029141902924D-08
    9.774048417492D-01 2.469375000000D+02 2.067987729201D+00-7.831397637718D-09
   -2.567964108870D-10 1.000000000000D+00 2.211000000000D+03 0.000000000000D+00
    2.000000000000D+00 0.000000000000D+00-1.583248376846D-08 2.800000000000D+01
    2.520180000000D+05 4.000000000000D+00
13 22  5 25  0  0  0.0 3.175782039762D-04 6.821210263297D-12 0.000000000000D+00
    6.000000000000D+01-5.571875000000D+01 4.499473135402D-09-1.857329717238D-02
   -2.814456820488D-06 5.928079714067D-03 8.437782526016D-06 5.153676601410D+03
    2.592000000000D+05-3.539025783539D-08-1.447649543294D+00 4.656612873077D-08
    9.683477491478D-01 2.170000000000D+02 9.192809837657D-01-8.126409926164D-09
   -4.228747572882D-10 1.000000000000D+00 2.211000000000D+03 0.000000000000D+00
    2.000000000000D+00 0.000000000000D+00-1.164153218269D-08 6.000000000000D+01
    2.520180000000D+05 4.000000000000D+00
17 22  5 25  0  0  0.0 6.167381070554D-04 4.774847184308D-12 0.000000000000D+00
    1.350000000000D+02-4.684375000000D+01 4.182674225170D-09 3.935037597882D-01
   -2.600252628326D-06 1.351303805131D-02 7.258728146553D-06 5.153555580139D+03
    2.592000000000D+05-1.732259988785D-07 1.620895314007D+00-1.564621925354D-07
    9.785700150376D-01 2.480625000000D+02-1.493042522003D+00-8.232842930954D-09
   -2.835832409517D-10 1.000000000000D+00 2.211000000000D+03 0.000000000000D+00
    2.000000000000D+00 0.000000000000D+00-1.117587089539D-08 1.350000000000D+02
    2.520180000000D+05 4.000000000000D+00
